{
 "generated_at": "2026-07-11T07:11:30Z",
 "sources": [
  {
   "name": "CelesTrak",
   "url": "https://celestrak.org/NORAD/elements/",
   "license": "frei verfügbar; Attribution. Ursprünglich USSPACECOM/Space-Track."
  },
  {
   "name": "GCAT (J. McDowell, planet4589.org)",
   "url": "https://planet4589.org/space/gcat/",
   "license": "CC-BY 4.0"
  }
 ],
 "satellites": [
  {
   "norad": 41599,
   "name": "CARTOSAT-2C",
   "intl": "2016-040A",
   "group": "resource",
   "gcat": {
    "class": "D",
    "category": "IMG",
    "owner": "ISRO",
    "state": "IN"
   },
   "omm": {
    "OBJECT_NAME": "CARTOSAT-2C",
    "OBJECT_ID": "2016-040A",
    "EPOCH": "2026-07-10T20:06:11.371104",
    "MEAN_MOTION": 15.19243195,
    "ECCENTRICITY": 0.000985,
    "INCLINATION": 97.4476,
    "RA_OF_ASC_NODE": 251.4888,
    "ARG_OF_PERICENTER": 58.0569,
    "MEAN_ANOMALY": 302.1622,
    "EPHEMERIS_TYPE": 0,
    "CLASSIFICATION_TYPE": "U",
    "NORAD_CAT_ID": 41599,
    "ELEMENT_SET_NO": 999,
    "REV_AT_EPOCH": 55730,
    "BSTAR": 0.00012391,
    "MEAN_MOTION_DOT": 0.00002545,
    "MEAN_MOTION_DDOT": 0
   }
  },
  {
   "norad": 41948,
   "name": "CARTOSAT-2D",
   "intl": "2017-008A",
   "group": "resource",
   "gcat": {
    "class": "D",
    "category": "IMG",
    "owner": "ISRO",
    "state": "IN"
   },
   "omm": {
    "OBJECT_NAME": "CARTOSAT-2D",
    "OBJECT_ID": "2017-008A",
    "EPOCH": "2026-07-10T20:51:59.842368",
    "MEAN_MOTION": 15.19261858,
    "ECCENTRICITY": 0.000567,
    "INCLINATION": 97.4099,
    "RA_OF_ASC_NODE": 250.7312,
    "ARG_OF_PERICENTER": 150.1716,
    "MEAN_ANOMALY": 209.9843,
    "EPHEMERIS_TYPE": 0,
    "CLASSIFICATION_TYPE": "U",
    "NORAD_CAT_ID": 41948,
    "ELEMENT_SET_NO": 999,
    "REV_AT_EPOCH": 52117,
    "BSTAR": 0.000064638,
    "MEAN_MOTION_DOT": 0.00001296,
    "MEAN_MOTION_DDOT": 0
   }
  },
  {
   "norad": 42767,
   "name": "CARTOSAT-2E",
   "intl": "2017-036C",
   "group": "resource",
   "gcat": {
    "class": "D",
    "category": "IMG",
    "owner": "ISRO",
    "state": "IN"
   },
   "omm": {
    "OBJECT_NAME": "CARTOSAT-2E",
    "OBJECT_ID": "2017-036C",
    "EPOCH": "2026-07-10T19:42:37.086912",
    "MEAN_MOTION": 15.19233582,
    "ECCENTRICITY": 0.0002797,
    "INCLINATION": 97.4268,
    "RA_OF_ASC_NODE": 251.2325,
    "ARG_OF_PERICENTER": 204.761,
    "MEAN_ANOMALY": 155.349,
    "EPHEMERIS_TYPE": 0,
    "CLASSIFICATION_TYPE": "U",
    "NORAD_CAT_ID": 42767,
    "ELEMENT_SET_NO": 999,
    "REV_AT_EPOCH": 50173,
    "BSTAR": 0.00010611,
    "MEAN_MOTION_DOT": 0.00002167,
    "MEAN_MOTION_DDOT": 0
   }
  },
  {
   "norad": 43111,
   "name": "CARTOSAT-2F",
   "intl": "2018-004A",
   "group": "resource",
   "gcat": {
    "class": "D",
    "category": "IMG",
    "owner": "ISRO",
    "state": "IN"
   },
   "omm": {
    "OBJECT_NAME": "CARTOSAT-2F",
    "OBJECT_ID": "2018-004A",
    "EPOCH": "2026-07-10T20:29:33.702720",
    "MEAN_MOTION": 15.1924597,
    "ECCENTRICITY": 0.0002344,
    "INCLINATION": 97.4779,
    "RA_OF_ASC_NODE": 251.2559,
    "ARG_OF_PERICENTER": 144.3538,
    "MEAN_ANOMALY": 215.7853,
    "EPHEMERIS_TYPE": 0,
    "CLASSIFICATION_TYPE": "U",
    "NORAD_CAT_ID": 43111,
    "ELEMENT_SET_NO": 999,
    "REV_AT_EPOCH": 47092,
    "BSTAR": 0.000061358,
    "MEAN_MOTION_DOT": 0.00001225,
    "MEAN_MOTION_DDOT": 0
   }
  },
  {
   "norad": 44804,
   "name": "CARTOSAT-3",
   "intl": "2019-081A",
   "group": "resource",
   "gcat": {
    "class": "D",
    "category": "IMG",
    "owner": "ISRO",
    "state": "IN"
   },
   "omm": {
    "OBJECT_NAME": "CARTOSAT-3",
    "OBJECT_ID": "2019-081A",
    "EPOCH": "2026-07-10T20:50:05.593920",
    "MEAN_MOTION": 15.19301599,
    "ECCENTRICITY": 0.0013396,
    "INCLINATION": 97.4296,
    "RA_OF_ASC_NODE": 253.3529,
    "ARG_OF_PERICENTER": 74.8248,
    "MEAN_ANOMALY": 285.4467,
    "EPHEMERIS_TYPE": 0,
    "CLASSIFICATION_TYPE": "U",
    "NORAD_CAT_ID": 44804,
    "ELEMENT_SET_NO": 999,
    "REV_AT_EPOCH": 36706,
    "BSTAR": 0.000062513,
    "MEAN_MOTION_DOT": 0.00001254,
    "MEAN_MOTION_DDOT": 0
   }
  },
  {
   "norad": 47932,
   "name": "CAS500-1",
   "intl": "2021-022A",
   "group": "resource",
   "gcat": {
    "class": "C",
    "category": "IMG",
    "owner": "KARI",
    "state": "KR"
   },
   "omm": {
    "OBJECT_NAME": "CAS500-1",
    "OBJECT_ID": "2021-022A",
    "EPOCH": "2026-07-10T21:23:47.899968",
    "MEAN_MOTION": 15.20152771,
    "ECCENTRICITY": 0.0004728,
    "INCLINATION": 97.3876,
    "RA_OF_ASC_NODE": 86.6621,
    "ARG_OF_PERICENTER": 183.1822,
    "MEAN_ANOMALY": 176.9384,
    "EPHEMERIS_TYPE": 0,
    "CLASSIFICATION_TYPE": "U",
    "NORAD_CAT_ID": 47932,
    "ELEMENT_SET_NO": 999,
    "REV_AT_EPOCH": 29436,
    "BSTAR": 0.00016756,
    "MEAN_MOTION_DOT": 0.00003558,
    "MEAN_MOTION_DDOT": 0
   }
  },
  {
   "norad": 69013,
   "name": "CAS500-2",
   "intl": "2026-100AK",
   "group": "resource",
   "gcat": {
    "class": "C",
    "category": "TECH",
    "owner": "KAIST",
    "state": "KR"
   },
   "omm": {
    "OBJECT_NAME": "CAS500-2",
    "OBJECT_ID": "2026-100AK",
    "EPOCH": "2026-07-10T04:22:24.425760",
    "MEAN_MOTION": 15.20866161,
    "ECCENTRICITY": 0.00081008,
    "INCLINATION": 97.3877,
    "RA_OF_ASC_NODE": 88.6034,
    "ARG_OF_PERICENTER": 313.0008,
    "MEAN_ANOMALY": 47.0548,
    "EPHEMERIS_TYPE": 0,
    "CLASSIFICATION_TYPE": "U",
    "NORAD_CAT_ID": 69013,
    "ELEMENT_SET_NO": 999,
    "REV_AT_EPOCH": 1030,
    "BSTAR": 0.00020272055,
    "MEAN_MOTION_DOT": 0.00004412,
    "MEAN_MOTION_DDOT": 0
   }
  },
  {
   "norad": 66655,
   "name": "CAS500-3",
   "intl": "2025-274F",
   "group": "resource",
   "gcat": {
    "class": "B",
    "category": "IMG",
    "owner": "KAIST",
    "state": "KR"
   },
   "omm": {
    "OBJECT_NAME": "CAS500-3",
    "OBJECT_ID": "2025-274F",
    "EPOCH": "2026-07-10T06:36:10.338624",
    "MEAN_MOTION": 14.88376906,
    "ECCENTRICITY": 0.00065732,
    "INCLINATION": 97.744,
    "RA_OF_ASC_NODE": 118.8011,
    "ARG_OF_PERICENTER": 51.312,
    "MEAN_ANOMALY": 308.8684,
    "EPHEMERIS_TYPE": 0,
    "CLASSIFICATION_TYPE": "U",
    "NORAD_CAT_ID": 66655,
    "ELEMENT_SET_NO": 999,
    "REV_AT_EPOCH": 3358,
    "BSTAR": 0.00009098435,
    "MEAN_MOTION_DOT": 0.00000789,
    "MEAN_MOTION_DDOT": 0
   }
  },
  {
   "norad": 40336,
   "name": "CBERS 4",
   "intl": "2014-079A",
   "group": "resource",
   "gcat": {
    "class": "C",
    "category": "IMG",
    "owner": "ZZWYZ/INPE",
    "state": "CN"
   },
   "omm": {
    "OBJECT_NAME": "CBERS 4",
    "OBJECT_ID": "2014-079A",
    "EPOCH": "2026-07-10T21:00:19.363968",
    "MEAN_MOTION": 14.35514501,
    "ECCENTRICITY": 0.0000973,
    "INCLINATION": 98.3523,
    "RA_OF_ASC_NODE": 247.9622,
    "ARG_OF_PERICENTER": 50.1598,
    "MEAN_ANOMALY": 309.9673,
    "EPHEMERIS_TYPE": 0,
    "CLASSIFICATION_TYPE": "U",
    "NORAD_CAT_ID": 40336,
    "ELEMENT_SET_NO": 999,
    "REV_AT_EPOCH": 60735,
    "BSTAR": -0.000047671,
    "MEAN_MOTION_DOT": -0.00000179,
    "MEAN_MOTION_DDOT": 0
   }
  },
  {
   "norad": 64903,
   "name": "CO3D 1",
   "intl": "2025-156E",
   "group": "resource",
   "gcat": {
    "class": "C",
    "category": "SCI",
    "owner": "CNES",
    "state": "F"
   },
   "omm": {
    "OBJECT_NAME": "CO3D 1",
    "OBJECT_ID": "2025-156E",
    "EPOCH": "2026-07-10T17:15:34.712064",
    "MEAN_MOTION": 15.2020265,
    "ECCENTRICITY": 0.0001313,
    "INCLINATION": 97.4336,
    "RA_OF_ASC_NODE": 269.9726,
    "ARG_OF_PERICENTER": 100.321,
    "MEAN_ANOMALY": 259.8173,
    "EPHEMERIS_TYPE": 0,
    "CLASSIFICATION_TYPE": "U",
    "NORAD_CAT_ID": 64903,
    "ELEMENT_SET_NO": 999,
    "REV_AT_EPOCH": 5310,
    "BSTAR": 0.00012671,
    "MEAN_MOTION_DOT": 0.00002676,
    "MEAN_MOTION_DDOT": 0
   }
  },
  {
   "norad": 64902,
   "name": "CO3D 2",
   "intl": "2025-156D",
   "group": "resource",
   "gcat": {
    "class": "C",
    "category": "SCI",
    "owner": "CNES",
    "state": "F"
   },
   "omm": {
    "OBJECT_NAME": "CO3D 2",
    "OBJECT_ID": "2025-156D",
    "EPOCH": "2026-07-10T17:15:21.532608",
    "MEAN_MOTION": 15.20199217,
    "ECCENTRICITY": 0.0001322,
    "INCLINATION": 97.4336,
    "RA_OF_ASC_NODE": 269.9724,
    "ARG_OF_PERICENTER": 88.061,
    "MEAN_ANOMALY": 272.0776,
    "EPHEMERIS_TYPE": 0,
    "CLASSIFICATION_TYPE": "U",
    "NORAD_CAT_ID": 64902,
    "ELEMENT_SET_NO": 999,
    "REV_AT_EPOCH": 5310,
    "BSTAR": 0.00012762,
    "MEAN_MOTION_DOT": 0.00002696,
    "MEAN_MOTION_DDOT": 0
   }
  },
  {
   "norad": 64900,
   "name": "CO3D 3",
   "intl": "2025-156B",
   "group": "resource",
   "gcat": {
    "class": "C",
    "category": "SCI",
    "owner": "CNES",
    "state": "F"
   },
   "omm": {
    "OBJECT_NAME": "CO3D 3",
    "OBJECT_ID": "2025-156B",
    "EPOCH": "2026-07-10T18:03:09.001728",
    "MEAN_MOTION": 15.20214951,
    "ECCENTRICITY": 0.0001836,
    "INCLINATION": 97.4336,
    "RA_OF_ASC_NODE": 270.1062,
    "ARG_OF_PERICENTER": 99.8925,
    "MEAN_ANOMALY": 260.2517,
    "EPHEMERIS_TYPE": 0,
    "CLASSIFICATION_TYPE": "U",
    "NORAD_CAT_ID": 64900,
    "ELEMENT_SET_NO": 999,
    "REV_AT_EPOCH": 5311,
    "BSTAR": 0.00012981,
    "MEAN_MOTION_DOT": 0.00002745,
    "MEAN_MOTION_DDOT": 0
   }
  },
  {
   "norad": 64901,
   "name": "CO3D 4",
   "intl": "2025-156C",
   "group": "resource",
   "gcat": {
    "class": "C",
    "category": "SCI",
    "owner": "CNES",
    "state": "F"
   },
   "omm": {
    "OBJECT_NAME": "CO3D 4",
    "OBJECT_ID": "2025-156C",
    "EPOCH": "2026-07-10T05:25:05.908512",
    "MEAN_MOTION": 15.20205175,
    "ECCENTRICITY": 0.00012271,
    "INCLINATION": 97.4337,
    "RA_OF_ASC_NODE": 269.5877,
    "ARG_OF_PERICENTER": 162.5388,
    "MEAN_ANOMALY": 197.5889,
    "EPHEMERIS_TYPE": 0,
    "CLASSIFICATION_TYPE": "U",
    "NORAD_CAT_ID": 64901,
    "ELEMENT_SET_NO": 999,
    "REV_AT_EPOCH": 5303,
    "BSTAR": 0.000042253728,
    "MEAN_MOTION_DOT": 0.00000847,
    "MEAN_MOTION_DDOT": 0
   }
  }
 ]
}
